LANDSAT 9               
1 49260U 21088A   24047.14562108  .00000906  00000+0  21112-3 0  9998
2 49260  98.2013 118.7616 0001089 108.8643 251.2674 14.57130639126919
